[{"OBJECT_NAME":"CAS500-1","OBJECT_ID":"2021-022A","EPOCH":"2026-03-09T23:57:39.791808","MEAN_MOTION":15.20304346,"ECCENTRICITY":0.00036012,"INCLINATION":97.4003,"RA_OF_ASC_NODE":326.196,"ARG_OF_PERICENTER":278.8383,"MEAN_ANOMALY":81.2444,"EPHEMERIS_TYPE":0,"CLASSIFICATION_TYPE":"U","NORAD_CAT_ID":47932,"ELEMENT_SET_NO":999,"REV_AT_EPOCH":27569,"BSTAR":0.00044667126,"MEAN_MOTION_DOT":9.645e-5,"MEAN_MOTION_DDOT":0},{"OBJECT_NAME":"OBJECT P","OBJECT_ID":"2025-313P","EPOCH":"2026-03-09T21:52:10.906176","MEAN_MOTION":15.22867124,"ECCENTRICITY":0.00138824,"INCLINATION":97.4038,"RA_OF_ASC_NODE":145.2697,"ARG_OF_PERICENTER":354.5628,"MEAN_ANOMALY":5.5456,"EPHEMERIS_TYPE":0,"CLASSIFICATION_TYPE":"U","NORAD_CAT_ID":67261,"ELEMENT_SET_NO":999,"REV_AT_EPOCH":1085,"BSTAR":0.00092209844,"MEAN_MOTION_DOT":0.00021628,"MEAN_MOTION_DDOT":0}]
